COSMOS 2515             
1 41394U 16020A   23223.15041652  .00001055  00000+0  86938-4 0  9994
2 41394  97.9007 191.4481 0032252 207.1378 152.8161 15.00946377403862
BEIDOU-2 IGSO-6         
1 41434U 16021A   23221.99147351 -.00000151  00000+0  00000+0 0  9991
2 41434  58.7150  48.5206 0046268 217.9456 144.2337  1.00288125 27021
E-ST@R-II               
1 41459U 16025D   23223.08966143  .00027516  00000+0  73106-3 0  9996
2 41459  98.1818  70.0926 0098517 267.1531  91.8430 15.33358656401307
AAUSAT 4                
1 41460U 16025E   23223.10878989  .00332697  00000+0  19160-2 0  9999
2 41460  98.1465  85.7233 0037644 206.9321 152.9990 15.76795786402366
MVL-300                 
1 41464U 16026A   23223.04017797  .00059271  00000+0  75489-3 0  9990
2 41464  96.9902  79.9184 0007751  84.3583 275.8558 15.59116771407650
AIST-2D (RS-48)         
1 41465U 16026B   23223.08797508  .00026909  00000+0  32348-3 0  9999
2 41465  96.9895  93.5028 0007497  46.4426 313.7454 15.60798306408529
IRNSS-1G                
1 41469U 16027A   23222.35677007 -.00000343  00000+0  00000+0 0  9995
2 41469   2.7764 132.7735 0004128 347.2120  96.5538  1.00276342 26722
JCSAT-2B                
1 41471U 16028A   23222.88799312 -.00000173  00000+0  00000+0 0  9992
2 41471   0.0161  95.7851 0000850  50.4018 286.5717  1.00270705 26649
YAOGAN-30               
1 41473U 16029A   23223.11721798  .00000789  00000+0  12169-3 0  9990
2 41473  98.0556 269.9592 0017523 341.0006  19.0547 14.76108665390066
GSAT0211 (GALILEO 14)   
1 41549U 16030A   23217.32835225  .00000036  00000+0  00000+0 0  9995
2 41549  55.5242 250.4987 0003425 305.9128  54.1171  1.70473751 44805
GSAT0210 (GALILEO 13)   
1 41550U 16030B   23221.72599700  .00000049  00000+0  00000+0 0  9995
2 41550  55.5214 250.3785 0004097 270.0689  89.9460  1.70473783 44870
THAICOM 8               
1 41552U 16031A   23222.77667309 -.00000129  00000+0  00000+0 0  9995
2 41552   0.0706  50.6160 0002501  34.0708 232.4023  1.00272820 26332
COSMOS 2516 [GLONASS-M] 
1 41554U 16032A   23222.17234304  .00000095  00000+0  00000+0 0  9998
2 41554  63.8682 226.9309 0015531 214.8208 145.1116  2.13106475 56026
ZIYUAN 3-2 (ZY 3-2)     
1 41556U 16033A   23223.10162748  .00007523  00000+0  34062-3 0  9999
2 41556  97.4915 295.8420 0004171 179.1524 180.9719 15.21167193399709
NUSAT-1 (FRESCO)        
1 41557U 16033B   23223.11848793  .00103076  00000+0  89660-3 0  9996
2 41557  97.3880 333.5471 0005943 271.2626  88.7954 15.68708627402212
NUSAT-2 (BATATA)        
1 41558U 16033C   23222.99705928  .00149312  00000+0  99233-3 0  9994
2 41558  97.4165 342.1595 0006658 261.6115  98.4395 15.74981143402561
COSMOS 2517 (GEO-IK 2)  
1 41579U 16034A   23223.11048789  .00000004  00000+0  41688-4 0  9994
2 41579  99.2118 234.6406 0001040 105.0768 255.0503 13.85901783363428
INTELSAT 31 (IS-31)     
1 41581U 16035A   23221.95373115 -.00000157  00000+0  00000+0 0  9990
2 41581   0.0344 259.8892 0001123 341.5599 324.9989  1.00270860 26239
BEIDOU-2 G7             
1 41586U 16037A   23222.71132024 -.00000362  00000+0  00000+0 0  9992
2 41586   1.8133  68.1109 0007281 349.2904 268.1439  1.00271101 26347
ABS-2A (MONGOLSAT-1)    
1 41588U 16038A   23223.06255304 -.00000091  00000+0  00000+0 0  9990
2 41588   0.0182  82.3216 0001098 329.8240   4.3373  1.00272438 26259
EUTELSAT 117 WEST B     
1 41589U 16038B   23222.16436311 -.00000019  00000+0  00000+0 0  9990
2 41589   0.0114 210.8604 0000328 264.2992 145.3916  1.00272928 26258
BRISAT                  
1 41591U 16039A   23222.42792233 -.00000204  00000+0  00000+0 0  9997
2 41591   0.0123  90.9360 0002159  55.5663 116.6732  1.00270469 26195
ECHOSTAR 18             
1 41592U 16039B   23222.41046957 -.00000289  00000+0  00000+0 0  9995
2 41592   0.0169 100.1403 0001467  47.1554 257.7291  1.00273653 26178
CARTOSAT-2C             
1 41599U 16040A   23223.08173230  .00005475  00000+0  26281-3 0  9997
2 41599  97.4328 282.4833 0014010 155.4094 204.7812 15.19191859395647
SKYSAT-C1               
1 41601U 16040C   23222.43042230  .00014660  00000+0  38526-3 0  9995
2 41601  97.1088 291.4293 0001580  73.2265 286.9154 15.38691341398428
GHGSAT-D                
1 41602U 16040D   23222.67549667  .00018914  00000+0  50246-3 0  9997
2 41602  97.1518 260.4271 0008071  85.3184 274.8983 15.38274130396815
LAPAN-A3                
1 41603U 16040E   23223.06589861  .00002605  00000+0  11417-3 0  9999
2 41603  97.1646 246.0974 0014282 119.1803 241.0865 15.22759734395841
BIROS                   
1 41604U 16040F   23222.65026372  .00007663  00000+0  26440-3 0  9998
2 41604  97.1609 256.3318 0012154  87.3170 272.9463 15.30170886396422
M3MSAT                  
1 41605U 16040G   23222.36056024  .00009669  00000+0  33802-3 0  9992
2 41605  97.1607 253.6191 0012141 103.1483 257.1114 15.29672243396228
SWAYAM                  
1 41607U 16040J   23223.09772871  .01103945  67851-3  16319-2 0  9997
2 41607  97.1267 275.9393 0006991 239.4654 120.5938 16.05079051397683
BEESAT-4                
1 41619U 16040W   23223.12265712  .00187055  00000+0  12676-2 0  9999
2 41619  97.1483 273.6423 0001904 126.6426 233.5014 15.74447229385473
MUOS-5                  
1 41622U 16041A   23222.38618535 -.00000157  00000+0  00000+0 0  9999
2 41622   4.6239 298.0798 0199519 245.1377 169.4219  1.00271019 26626
SJ 16-02                
1 41634U 16043A   23223.06291043  .00000979  00000+0  11015-3 0  9994
2 41634  75.0006  81.3510 0007168  47.3397 312.8392 14.87808807386018
TIANTONG-1 1            
1 41725U 16048A   23222.62172497 -.00000325  00000+0  00000+0 0  9996
2 41725   2.3344  17.5994 0001459 318.8830 307.5673  1.00273011 25825
GAOFEN 3                
1 41727U 16049A   23223.06618884  .00000090  00000+0  40524-4 0  9991
2 41727  98.4074 230.2928 0001793  99.5792 260.5600 14.42214351368577
JCSAT-16                
1 41729U 16050A   23222.72202139 -.00000314  00000+0  00000+0 0  9999
2 41729   0.1315  91.3793 0001006 359.4406 264.0135  1.00268025 25625
QSS (MOZI)              
1 41731U 16051A   23223.05814150  .00006023  00000+0  19963-3 0  9996
2 41731  97.3182 132.7093 0009404 254.8456 105.1746 15.31606903388988
USA 270                 
1 41744U 16052A   23220.35063875 -.00000347  00000+0  00000+0 0  9993
2 41744   1.5039  90.6258 0001503 115.5575   8.6886  1.00153541 17664
USA 271                 
1 41745U 16052B   23220.07757684 -.00000032  00000+0  00000+0 0  9992
2 41745   1.4754  90.5701 0000698  78.5825 246.4041  1.00143084  8262
INTELSAT 36 (IS-36)     
1 41747U 16053A   23223.06133273 -.00000031  00000+0  00000+0 0  9998
2 41747   0.0144 128.7913 0001763  58.3178 222.7232  1.00271674 25504
INTELSAT 33E (IS-33E)   
1 41748U 16053B   23222.30743737  .00000042  00000+0  00000+0 0  9998
2 41748   0.0061  21.5154 0001652 126.1246 341.5399  1.00273392 25779
INSAT-3DR               
1 41752U 16054A   23223.06246588 -.00000084  00000+0  00000+0 0  9997
2 41752   0.0503  95.9974 0011418 169.5252 150.2311  1.00272690 25363
PERUSAT 1               
1 41770U 16058A   23223.13854800  .00000437  00000+0  10400-3 0  9991
2 41770  98.2129 295.5183 0001285  92.8849 267.2498 14.58532775367349
SKYSAT-C4               
1 41771U 16058B   23222.44163034  .00014852  00000+0  38893-3 0  9999
2 41771  97.0625 279.1778 0002687  85.8471 274.3082 15.38794339385394
SKYSAT-C5               
1 41772U 16058C   23223.08419601  .00010356  00000+0  32024-3 0  9990
2 41772  97.2103 280.4940 0002744 120.0891 240.0625 15.33680458383916
SKYSAT-C2               
1 41773U 16058D   23222.64830059  .00013392  00000+0  35582-3 0  9991
2 41773  97.0641 279.6230 0000864 272.8316  87.2832 15.38373333385439
SKYSAT-C3               
1 41774U 16058E   23222.60731517  .00016809  00000+0  36936-3 0  9997
2 41774  97.0636 282.6675 0001579  94.1480 265.9950 15.44075209385638
PISAT                   
1 41784U 16059B   23222.63871807  .00000975  00000+0  19010-3 0  9990
2 41784  97.8671 253.6078 0029709 282.9736  76.8151 14.64836322367035
ALSAT 1B                
1 41785U 16059C   23223.07026820  .00000469  00000+0  85080-4 0  9996
2 41785  97.8575 258.3425 0008883 334.7695  25.3076 14.70489736367470
ALSAT 2B                
1 41786U 16059D   23223.12015222  .00000820  00000+0  15242-3 0  9990
2 41786  98.1114 283.0531 0000462  75.5035 284.6221 14.67733726367884
PATHFINDER 1            
1 41787U 16059E   23223.05161556  .00000693  00000+0  13819-3 0  9991
2 41787  97.8640 254.3654 0028461 278.4576  81.3402 14.64702821367146
SCATSAT 1               
1 41790U 16059H   23222.11150419  .00000322  00000+0  91986-4 0  9998
2 41790  98.2666 265.1685 0004648  10.5266 349.6025 14.51257556363782
GSAT-18                 
1 41793U 16060A   23223.06237872 -.00000084  00000+0  00000+0 0  9995
2 41793   0.0129  91.2892 0001313 333.7441 350.6406  1.00272576 25092
SKY MUSTER 2 (NBN1B)    
1 41794U 16060B   23222.42456949 -.00000251  00000+0  00000+0 0  9999
2 41794   0.0112 119.6577 0001497  25.9430 110.6584  1.00270978 25120
HIMAWARI-9              
1 41836U 16064A   23222.93239052 -.00000282  00000+0  00000+0 0  9994
2 41836   0.0046 218.4248 0001031 303.1129 274.0046  1.00271507 24863
SHIJIAN-17 (SJ-17)      
1 41838U 16065A   23222.75181376 -.00000294  00000+0  00000+0 0  9995
2 41838   3.0870  85.0398 0001194 224.9932  53.6476  1.00498567 24785
XPNAV-1                 
1 41841U 16066A   23223.08963850  .00010402  00000+0  33318-3 0  9995
2 41841  97.3990 233.5254 0010366 249.8720 110.1407 15.32517342375326
XIAOXIANG 1             
1 41842U 16066B   23223.08660031  .00019630  00000+0  48511-3 0  9994
2 41842  97.3833 238.0662 0008657 224.6406 135.4144 15.40482985375745
PINA 2B                 
1 41844U 16066D   23223.06738732  .00079177  00000+0  92414-3 0  9991
2 41844  97.3635 244.1867 0007870 184.0928 176.0266 15.61336759376226
